{
  "type": "FeatureCollection",
  "features": [
    {
      "type": "Feature",
      "id": "fire_cluster_001",
      "geometry": {
        "type": "Point",
        "coordinates": [
          75.827,
          30.2338
        ]
      },
      "properties": {
        "layer_type": "fire_source",
        "hotspot_count": 4,
        "total_frp_mw": 1023.1,
        "source_strength": 0.098
      }
    },
    {
      "type": "Feature",
      "id": "uncertainty_envelope",
      "geometry": {
        "type": "Polygon",
        "coordinates": [
          [
            [
              76.1658,
              29.3838
            ],
            [
              77.4806,
              29.3838
            ],
            [
              77.4806,
              30.0108
            ],
            [
              76.1658,
              30.0108
            ],
            [
              76.1658,
              29.3838
            ]
          ]
        ]
      },
      "properties": {
        "layer_type": "uncertainty_envelope",
        "member_count": 3,
        "stroke_style": "dashed"
      }
    },
    {
      "type": "Feature",
      "id": "sch_dl_narela_001",
      "geometry": {
        "type": "Point",
        "coordinates": [
          77.1,
          28.8
        ]
      },
      "properties": {
        "layer_type": "school_pin",
        "name": "Govt Boys Senior Secondary School Narela",
        "district": "North West Delhi",
        "risk_band": "LOW",
        "risk_score": 0.1,
        "impact_probability": 0.0
      }
    },
    {
      "type": "Feature",
      "id": "sch_dl_bawana_002",
      "geometry": {
        "type": "Point",
        "coordinates": [
          77.1,
          28.8
        ]
      },
      "properties": {
        "layer_type": "school_pin",
        "name": "Sarvodaya Kanya Vidyalaya Bawana",
        "district": "North West Delhi",
        "risk_band": "LOW",
        "risk_score": 0.1,
        "impact_probability": 0.0
      }
    },
    {
      "type": "Feature",
      "id": "sch_dl_rohini_003",
      "geometry": {
        "type": "Point",
        "coordinates": [
          77.1,
          28.8
        ]
      },
      "properties": {
        "layer_type": "school_pin",
        "name": "Delhi Public School Rohini Sector 24",
        "district": "North West Delhi",
        "risk_band": "LOW",
        "risk_score": 0.1,
        "impact_probability": 0.0
      }
    },
    {
      "type": "Feature",
      "id": "sch_dl_pitampura_004",
      "geometry": {
        "type": "Point",
        "coordinates": [
          77.1,
          28.8
        ]
      },
      "properties": {
        "layer_type": "school_pin",
        "name": "Bal Bharati Public School Pitampura",
        "district": "North West Delhi",
        "risk_band": "LOW",
        "risk_score": 0.1,
        "impact_probability": 0.0
      }
    },
    {
      "type": "Feature",
      "id": "sch_hr_gurugram_005",
      "geometry": {
        "type": "Point",
        "coordinates": [
          77.1,
          28.8
        ]
      },
      "properties": {
        "layer_type": "school_pin",
        "name": "The Heritage School Gurugram Sector 62",
        "district": "Gurugram",
        "risk_band": "LOW",
        "risk_score": 0.1,
        "impact_probability": 0.0
      }
    },
    {
      "type": "Feature",
      "id": "sch_up_noida_006",
      "geometry": {
        "type": "Point",
        "coordinates": [
          77.1,
          28.8
        ]
      },
      "properties": {
        "layer_type": "school_pin",
        "name": "Amity International School Sector 44 Noida",
        "district": "Gautam Buddh Nagar",
        "risk_band": "LOW",
        "risk_score": 0.1,
        "impact_probability": 0.0
      }
    }
  ]
}